STARLINK-35805          
1 66359U 25254M   25330.62225566  .00201335  00000+0  13431-2 0  9991
2 66359  53.1585 354.9164 0001533  51.8214 308.2944 15.74245327  4287
STARLINK-35823          
1 66360U 25254N   25330.62157731  .00185497  00000+0  12399-2 0  9993
2 66360  53.1585 354.9111 0001266  51.3650 308.7483 15.74249616  3145
STARLINK-35813          
1 66361U 25254P   25330.55842862  .00199722  00000+0  13325-2 0  9998
2 66361  53.1586 355.2296 0001279  81.3221 278.7943 15.74247638  3134
STARLINK-35822          
1 66362U 25254Q   25330.55741345  .00246038  00000+0  16303-2 0  9995
2 66362  53.1584 355.2224 0001229  95.3607 264.7553 15.74264151  3133
STARLINK-35806          
1 66363U 25254R   25330.62123894  .00212254  00000+0  14130-2 0  9996
2 66363  53.1586 354.9089 0000903  67.1158 292.9957 15.74259882  3144
STARLINK-35797          
1 66364U 25254S   25330.62056356  .00242360  00000+0  16061-2 0  9991
2 66364  53.1584 354.9045 0001194  76.8250 283.2903 15.74272747  3147
STARLINK-35827          
1 66365U 25254T   25330.55640016  .00193739  00000+0  12937-2 0  9999
2 66365  53.1583 355.2154 0001574  96.4827 263.6372 15.74247149  3131
STARLINK-35845          
1 66366U 25254U   25330.62022771  .00188904  00000+0  12627-2 0  9994
2 66366  53.1584 354.9023 0001711  50.0469 310.0701 15.74238441  3144
STARLINK-35846          
1 66367U 25254V   25330.55606366  .00206719  00000+0  13778-2 0  9998
2 66367  53.1583 355.2127 0001629  88.6781 271.4425 15.74248601  3136
STARLINK-34861          
1 66368U 25254W   25330.55538478  .00261669  00000+0  17296-2 0  9991
2 66368  53.1580 355.2071 0001184 105.1397 254.9754 15.74275223  3137
STARLINK-35795          
1 66369U 25254X   25330.55572259  .00163492  00000+0  10967-2 0  9990
2 66369  53.1581 355.2093 0001201  98.6068 261.5088 15.74238129  3132
STARLINK-35824          
1 66370U 25254Y   25330.61853407  .00191419  00000+0  12785-2 0  9996
2 66370  53.1583 354.8901 0000807 106.2697 253.8412 15.74249223  3147
