CCSDS_OMM_VERS = 2.0
CREATION_DATE  = 
ORIGINATOR     = 

OBJECT_NAME    = STARLINK-35805
OBJECT_ID      = 2025-254M
CENTER_NAME    = EARTH
REF_FRAME      = TEME
TIME_SYSTEM    = UTC
MEAN_ELEMENT_THEORY = SGP/SGP4

EPOCH          = 2025-11-26T14:56:02.889024
MEAN_MOTION    = 15.74245327
ECCENTRICITY   = .0001533
INCLINATION    = 53.1585
RA_OF_ASC_NODE = 354.9164
ARG_OF_PERICENTER = 51.8214
MEAN_ANOMALY   = 308.2944

EPHEMERIS_TYPE = 0
CLASSIFICATION_TYPE = U
NORAD_CAT_ID   = 66359
ELEMENT_SET_NO = 999
REV_AT_EPOCH   = 428
BSTAR          = .13431E-2
MEAN_MOTION_DOT = .201335E-2
MEAN_MOTION_DDOT = 0

CCSDS_OMM_VERS = 2.0
CREATION_DATE  = 
ORIGINATOR     = 

OBJECT_NAME    = STARLINK-35823
OBJECT_ID      = 2025-254N
CENTER_NAME    = EARTH
REF_FRAME      = TEME
TIME_SYSTEM    = UTC
MEAN_ELEMENT_THEORY = SGP/SGP4

EPOCH          = 2025-11-26T14:55:04.279584
MEAN_MOTION    = 15.74249616
ECCENTRICITY   = .0001266
INCLINATION    = 53.1585
RA_OF_ASC_NODE = 354.9111
ARG_OF_PERICENTER = 51.3650
MEAN_ANOMALY   = 308.7483

EPHEMERIS_TYPE = 0
CLASSIFICATION_TYPE = U
NORAD_CAT_ID   = 66360
ELEMENT_SET_NO = 999
REV_AT_EPOCH   = 314
BSTAR          = .12399E-2
MEAN_MOTION_DOT = .185497E-2
MEAN_MOTION_DDOT = 0

CCSDS_OMM_VERS = 2.0
CREATION_DATE  = 
ORIGINATOR     = 

OBJECT_NAME    = STARLINK-35813
OBJECT_ID      = 2025-254P
CENTER_NAME    = EARTH
REF_FRAME      = TEME
TIME_SYSTEM    = UTC
MEAN_ELEMENT_THEORY = SGP/SGP4

EPOCH          = 2025-11-26T13:24:08.232768
MEAN_MOTION    = 15.74247638
ECCENTRICITY   = .0001279
INCLINATION    = 53.1586
RA_OF_ASC_NODE = 355.2296
ARG_OF_PERICENTER = 81.3221
MEAN_ANOMALY   = 278.7943

EPHEMERIS_TYPE = 0
CLASSIFICATION_TYPE = U
NORAD_CAT_ID   = 66361
ELEMENT_SET_NO = 999
REV_AT_EPOCH   = 313
BSTAR          = .13325E-2
MEAN_MOTION_DOT = .199722E-2
MEAN_MOTION_DDOT = 0

CCSDS_OMM_VERS = 2.0
CREATION_DATE  = 
ORIGINATOR     = 

OBJECT_NAME    = STARLINK-35822
OBJECT_ID      = 2025-254Q
CENTER_NAME    = EARTH
REF_FRAME      = TEME
TIME_SYSTEM    = UTC
MEAN_ELEMENT_THEORY = SGP/SGP4

EPOCH          = 2025-11-26T13:22:40.522080
MEAN_MOTION    = 15.74264151
ECCENTRICITY   = .0001229
INCLINATION    = 53.1584
RA_OF_ASC_NODE = 355.2224
ARG_OF_PERICENTER = 95.3607
MEAN_ANOMALY   = 264.7553

EPHEMERIS_TYPE = 0
CLASSIFICATION_TYPE = U
NORAD_CAT_ID   = 66362
ELEMENT_SET_NO = 999
REV_AT_EPOCH   = 313
BSTAR          = .16303E-2
MEAN_MOTION_DOT = .246038E-2
MEAN_MOTION_DDOT = 0

CCSDS_OMM_VERS = 2.0
CREATION_DATE  = 
ORIGINATOR     = 

OBJECT_NAME    = STARLINK-35806
OBJECT_ID      = 2025-254R
CENTER_NAME    = EARTH
REF_FRAME      = TEME
TIME_SYSTEM    = UTC
MEAN_ELEMENT_THEORY = SGP/SGP4

EPOCH          = 2025-11-26T14:54:35.044416
MEAN_MOTION    = 15.74259882
ECCENTRICITY   = .0000903
INCLINATION    = 53.1586
RA_OF_ASC_NODE = 354.9089
ARG_OF_PERICENTER = 67.1158
MEAN_ANOMALY   = 292.9957

EPHEMERIS_TYPE = 0
CLASSIFICATION_TYPE = U
NORAD_CAT_ID   = 66363
ELEMENT_SET_NO = 999
REV_AT_EPOCH   = 314
BSTAR          = .1413E-2
MEAN_MOTION_DOT = .212254E-2
MEAN_MOTION_DDOT = 0

CCSDS_OMM_VERS = 2.0
CREATION_DATE  = 
ORIGINATOR     = 

OBJECT_NAME    = STARLINK-35797
OBJECT_ID      = 2025-254S
CENTER_NAME    = EARTH
REF_FRAME      = TEME
TIME_SYSTEM    = UTC
MEAN_ELEMENT_THEORY = SGP/SGP4

EPOCH          = 2025-11-26T14:53:36.691584
MEAN_MOTION    = 15.74272747
ECCENTRICITY   = .0001194
INCLINATION    = 53.1584
RA_OF_ASC_NODE = 354.9045
ARG_OF_PERICENTER = 76.8250
MEAN_ANOMALY   = 283.2903

EPHEMERIS_TYPE = 0
CLASSIFICATION_TYPE = U
NORAD_CAT_ID   = 66364
ELEMENT_SET_NO = 999
REV_AT_EPOCH   = 314
BSTAR          = .16061E-2
MEAN_MOTION_DOT = .24236E-2
MEAN_MOTION_DDOT = 0

CCSDS_OMM_VERS = 2.0
CREATION_DATE  = 
ORIGINATOR     = 

OBJECT_NAME    = STARLINK-35827
OBJECT_ID      = 2025-254T
CENTER_NAME    = EARTH
REF_FRAME      = TEME
TIME_SYSTEM    = UTC
MEAN_ELEMENT_THEORY = SGP/SGP4

EPOCH          = 2025-11-26T13:21:12.973824
MEAN_MOTION    = 15.74247149
ECCENTRICITY   = .0001574
INCLINATION    = 53.1583
RA_OF_ASC_NODE = 355.2154
ARG_OF_PERICENTER = 96.4827
MEAN_ANOMALY   = 263.6372

EPHEMERIS_TYPE = 0
CLASSIFICATION_TYPE = U
NORAD_CAT_ID   = 66365
ELEMENT_SET_NO = 999
REV_AT_EPOCH   = 313
BSTAR          = .12937E-2
MEAN_MOTION_DOT = .193739E-2
MEAN_MOTION_DDOT = 0

CCSDS_OMM_VERS = 2.0
CREATION_DATE  = 
ORIGINATOR     = 

OBJECT_NAME    = STARLINK-35845
OBJECT_ID      = 2025-254U
CENTER_NAME    = EARTH
REF_FRAME      = TEME
TIME_SYSTEM    = UTC
MEAN_ELEMENT_THEORY = SGP/SGP4

EPOCH          = 2025-11-26T14:53:07.674144
MEAN_MOTION    = 15.74238441
ECCENTRICITY   = .0001711
INCLINATION    = 53.1584
RA_OF_ASC_NODE = 354.9023
ARG_OF_PERICENTER = 50.0469
MEAN_ANOMALY   = 310.0701

EPHEMERIS_TYPE = 0
CLASSIFICATION_TYPE = U
NORAD_CAT_ID   = 66366
ELEMENT_SET_NO = 999
REV_AT_EPOCH   = 314
BSTAR          = .12627E-2
MEAN_MOTION_DOT = .188904E-2
MEAN_MOTION_DDOT = 0

CCSDS_OMM_VERS = 2.0
CREATION_DATE  = 
ORIGINATOR     = 

OBJECT_NAME    = STARLINK-35846
OBJECT_ID      = 2025-254V
CENTER_NAME    = EARTH
REF_FRAME      = TEME
TIME_SYSTEM    = UTC
MEAN_ELEMENT_THEORY = SGP/SGP4

EPOCH          = 2025-11-26T13:20:43.900224
MEAN_MOTION    = 15.74248601
ECCENTRICITY   = .0001629
INCLINATION    = 53.1583
RA_OF_ASC_NODE = 355.2127
ARG_OF_PERICENTER = 88.6781
MEAN_ANOMALY   = 271.4425

EPHEMERIS_TYPE = 0
CLASSIFICATION_TYPE = U
NORAD_CAT_ID   = 66367
ELEMENT_SET_NO = 999
REV_AT_EPOCH   = 313
BSTAR          = .13778E-2
MEAN_MOTION_DOT = .206719E-2
MEAN_MOTION_DDOT = 0

CCSDS_OMM_VERS = 2.0
CREATION_DATE  = 
ORIGINATOR     = 

OBJECT_NAME    = STARLINK-34861
OBJECT_ID      = 2025-254W
CENTER_NAME    = EARTH
REF_FRAME      = TEME
TIME_SYSTEM    = UTC
MEAN_ELEMENT_THEORY = SGP/SGP4

EPOCH          = 2025-11-26T13:19:45.244992
MEAN_MOTION    = 15.74275223
ECCENTRICITY   = .0001184
INCLINATION    = 53.1580
RA_OF_ASC_NODE = 355.2071
ARG_OF_PERICENTER = 105.1397
MEAN_ANOMALY   = 254.9754

EPHEMERIS_TYPE = 0
CLASSIFICATION_TYPE = U
NORAD_CAT_ID   = 66368
ELEMENT_SET_NO = 999
REV_AT_EPOCH   = 313
BSTAR          = .17296E-2
MEAN_MOTION_DOT = .261669E-2
MEAN_MOTION_DDOT = 0

CCSDS_OMM_VERS = 2.0
CREATION_DATE  = 
ORIGINATOR     = 

OBJECT_NAME    = STARLINK-35795
OBJECT_ID      = 2025-254X
CENTER_NAME    = EARTH
REF_FRAME      = TEME
TIME_SYSTEM    = UTC
MEAN_ELEMENT_THEORY = SGP/SGP4

EPOCH          = 2025-11-26T13:20:14.431776
MEAN_MOTION    = 15.74238129
ECCENTRICITY   = .0001201
INCLINATION    = 53.1581
RA_OF_ASC_NODE = 355.2093
ARG_OF_PERICENTER = 98.6068
MEAN_ANOMALY   = 261.5088

EPHEMERIS_TYPE = 0
CLASSIFICATION_TYPE = U
NORAD_CAT_ID   = 66369
ELEMENT_SET_NO = 999
REV_AT_EPOCH   = 313
BSTAR          = .10967E-2
MEAN_MOTION_DOT = .163492E-2
MEAN_MOTION_DDOT = 0

CCSDS_OMM_VERS = 2.0
CREATION_DATE  = 
ORIGINATOR     = 

OBJECT_NAME    = STARLINK-35824
OBJECT_ID      = 2025-254Y
CENTER_NAME    = EARTH
REF_FRAME      = TEME
TIME_SYSTEM    = UTC
MEAN_ELEMENT_THEORY = SGP/SGP4

EPOCH          = 2025-11-26T14:50:41.343648
MEAN_MOTION    = 15.74249223
ECCENTRICITY   = .0000807
INCLINATION    = 53.1583
RA_OF_ASC_NODE = 354.8901
ARG_OF_PERICENTER = 106.2697
MEAN_ANOMALY   = 253.8412

EPHEMERIS_TYPE = 0
CLASSIFICATION_TYPE = U
NORAD_CAT_ID   = 66370
ELEMENT_SET_NO = 999
REV_AT_EPOCH   = 314
BSTAR          = .12785E-2
MEAN_MOTION_DOT = .191419E-2
MEAN_MOTION_DDOT = 0

